STARLINK-37662          
1 69137U 26110P   26162.25002315 -.00005805  00000+0 -10513-3 0  9993
2 69137  97.2844 358.6342 0001923  69.4240 219.1675 15.49191046  4705
STARLINK-37658          
1 69138U 26110Q   26162.25002315 -.00006329  00000+0 -11481-3 0  9991
2 69138  97.2848 358.5593 0001231 112.7512 359.2837 15.49186462  4705
STARLINK-37659          
1 69139U 26110R   26162.25002315 -.00012086  00000+0 -22090-3 0  9997
2 69139  97.2850 358.5411 0001467  89.2095 339.9437 15.49188748  4703
STARLINK-37653          
1 69140U 26110S   26162.24010493  .00026049  00000+0  47877-3 0  9996
2 69140  97.2848 358.5241 0001140  88.5899 271.5483 15.49205046  4685
STARLINK-37654          
1 69141U 26110T   26162.25002315 -.00003684  00000+0 -66107-4 0  9992
2 69141  97.2841 358.6378 0001619  90.2328 207.9860 15.49188158  4708
STARLINK-37655          
1 69142U 26110U   26162.25002315 -.03628661  00000+0 -69682-1 0  9992
2 69142  97.2844 358.6889 0001380  75.6798 332.0242 15.52181002  4701
STARLINK-37636          
1 69143U 26110V   26162.25002315 -.02750303  00000+0 -46689-1 0  9993
2 69143  97.2846 358.7504 0001996  90.5775 111.5680 15.55059726  4709
STARLINK-37638          
1 69144U 26110W   26162.25002315 -.02603456  00000+0 -43451-1 0  9994
2 69144  97.2845 358.7578 0002336  94.1267 120.3261 15.55315107  4706
STARLINK-37657          
1 69145U 26110X   26162.25002315  .00006903  00000+0  12835-3 0  9999
2 69145  97.2845 358.6381 0002072  86.9466 209.9719 15.49215091  4756
STARLINK-37639          
1 69146U 26110Y   26162.25002315 -.02509595  00000+0 -41452-1 0  9994
2 69146  97.2844 358.7658 0002456 107.7894 123.8933 15.56075166  4754
STARLINK-37661          
1 69147U 26110Z   26162.25002315 -.00001731  00000+0 -30189-4 0  9990
2 69147  97.2853 358.5866 0001762  93.8072  83.7915 15.49168495  4750
STARLINK-37395          
1 69148U 26111A   26162.20135493  .00141055  00000+0  70678-3 0  9999
2 69148  53.1577 181.6600 0002261 113.9954 246.1306 15.80865152  3313
STARLINK-37346          
1 69149U 26111B   26162.25002315 -.02572641  00000+0 -23756-1 0  9997
2 69149  53.1590 181.4938 0001268  94.0906 144.7763 15.70336589  4590
STARLINK-37332          
1 69150U 26111C   26162.25002315 -.02532407  00000+0 -33148-1 0  9991
2 69150  53.1592 181.6311 0001388  77.5012  93.9834 15.61702088  4593
STARLINK-37297          
1 69151U 26111D   26162.26332934  .00120803  00000+0  60728-3 0  9991
2 69151  53.1579 181.3344 0001454 118.9332 241.1837 15.80864838  3324
STARLINK-37317          
1 69152U 26111E   26162.26134731  .00180859  00000+0  89805-3 0  9991
2 69152  53.1575 181.3208 0001525 133.2056 226.9094 15.80939090  3321
STARLINK-37374          
1 69153U 26111F   26162.25002315 -.02513539  00000+0 -39555-1 0  9997
2 69153  53.1594 181.7460 0001229  70.4677  44.2835 15.56887220  4593
STARLINK-37235          
1 69154U 26111G   26162.25002315 -.02641277  00000+0 -45902-1 0  9992
2 69154  53.1596 181.9634 0000596 102.1737 265.5121 15.53785018  4592
STARLINK-37329          
1 69155U 26111H   26162.26179829  .00278336  00000+0  13629-2 0  9999
2 69155  53.1578 181.3242 0001460 121.0777 239.0389 15.80966396  3329
STARLINK-37345          
1 69156U 26111J   26162.26035332  .00199897  00000+0  98945-3 0  9999
2 69156  53.1579 181.3144 0000963  72.7285 287.3843 15.80951578  3322
STARLINK-37353          
1 69157U 26111K   26162.26013478  .00158410  00000+0  78891-3 0  9991
2 69157  53.1581 181.3129 0000895 124.0649 236.0459 15.80943780  3328
STARLINK-37363          
1 69158U 26111L   26162.25805967  .00222038  00000+0  10950-2 0  9992
2 69158  53.1578 181.2982 0001464 115.0694 245.0481 15.80968432  3320
STARLINK-37343          
1 69159U 26111M   26162.25002315 -.02512775  00000+0 -39524-1 0  9990
2 69159  53.1592 181.7471 0001203  66.9919  46.8839 15.56898905  4594
STARLINK-37328          
1 69160U 26111N   26162.25793373  .00237276  00000+0  11676-2 0  9998
2 69160  53.1569 181.2978 0001271 105.4412 254.6751 15.80973003  3321
STARLINK-37311          
1 69161U 26111P   26162.20184894  .00193356  00000+0  10891-2 0  9994
2 69161  53.1581 181.6623 0001172  92.9355 267.1801 15.78121842  3310
STARLINK-36286          
1 69162U 26111Q   26162.20098348  .00193282  00000+0  10889-2 0  9998
2 69162  53.1581 181.6567 0001302  86.7158 273.4012 15.78118841  3314
STARLINK-37196          
1 69163U 26111R   26162.20371545  .00167201  00000+0  94553-3 0  9995
2 69163  53.1584 181.6743 0001415 102.8161 257.3019 15.78114862  3310
STARLINK-36288          
1 69164U 26111S   26162.20290544  .00176271  00000+0  99538-3 0  9990
2 69164  53.1582 181.6681 0000972  98.2296 261.8836 15.78118756  3317
STARLINK-37445          
1 69165U 26111T   26162.26309460  .00155077  00000+0  87870-3 0  9992
2 69165  53.1584 181.3308 0001079 109.6232 250.4906 15.78109697  3326
STARLINK-37491          
1 69166U 26111U   26162.13878166  .00189841  00000+0  10705-2 0  9991
2 69166  53.1580 181.9794 0001171  82.9043 277.2112 15.78108479  3305
