OBJECT_NAME,OBJECT_ID,EPOCH,MEAN_MOTION,ECCENTRICITY,INCLINATION,RA_OF_ASC_NODE,ARG_OF_PERICENTER,MEAN_ANOMALY,EPHEMERIS_TYPE,CLASSIFICATION_TYPE,NORAD_CAT_ID,ELEMENT_SET_NO,REV_AT_EPOCH,BSTAR,MEAN_MOTION_DOT,MEAN_MOTION_DDOT
STARLINK-37662,2026-110P,2026-06-11T06:00:02.000160,15.49191046,.00019232,97.2844,358.6342,69.4240,219.1675,0,U,69137,999,470,-.10513192E-3,-.5805E-4,0
STARLINK-37658,2026-110Q,2026-06-11T06:00:02.000160,15.49186462,.0001231,97.2848,358.5593,112.7512,359.2837,0,U,69138,999,470,-.11480764E-3,-.6329E-4,0
STARLINK-37659,2026-110R,2026-06-11T06:00:02.000160,15.49188748,.00014676,97.2850,358.5411,89.2095,339.9437,0,U,69139,999,470,-.22089895E-3,-.12086E-3,0
STARLINK-37653,2026-110S,2026-06-11T05:45:45.065952,15.49205046,.00011405,97.2848,358.5241,88.5899,271.5483,0,U,69140,999,468,.47876754E-3,.26049E-3,0
STARLINK-37654,2026-110T,2026-06-11T06:00:02.000160,15.49188158,.00016191,97.2841,358.6378,90.2328,207.9860,0,U,69141,999,470,-.66106729E-4,-.3684E-4,0
STARLINK-37655,2026-110U,2026-06-11T06:00:02.000160,15.52181002,.00013802,97.2844,358.6889,75.6798,332.0242,0,U,69142,999,470,-.69682218E-1,-.3628661E-1,0
STARLINK-37636,2026-110V,2026-06-11T06:00:02.000160,15.55059726,.00019965,97.2846,358.7504,90.5775,111.5680,0,U,69143,999,470,-.46689083E-1,-.2750303E-1,0
STARLINK-37638,2026-110W,2026-06-11T06:00:02.000160,15.55315107,.00023361,97.2845,358.7578,94.1267,120.3261,0,U,69144,999,470,-.4345051E-1,-.2603456E-1,0
STARLINK-37657,2026-110X,2026-06-11T06:00:02.000160,15.49215091,.0002072,97.2845,358.6381,86.9466,209.9719,0,U,69145,999,475,.12835165E-3,.6903E-4,0
STARLINK-37639,2026-110Y,2026-06-11T06:00:02.000160,15.56075166,.00024564,97.2844,358.7658,107.7894,123.8933,0,U,69146,999,475,-.41451618E-1,-.2509595E-1,0
STARLINK-37661,2026-110Z,2026-06-11T06:00:02.000160,15.49168495,.00017623,97.2853,358.5866,93.8072,83.7915,0,U,69147,999,475,-.30189107E-4,-.1731E-4,0
STARLINK-37395,2026-111A,2026-06-11T04:49:57.065952,15.80865152,.00022615,53.1577,181.6600,113.9954,246.1306,0,U,69148,999,331,.70678166E-3,.141055E-2,0
STARLINK-37346,2026-111B,2026-06-11T06:00:02.000160,15.70336589,.0001268,53.1590,181.4938,94.0906,144.7763,0,U,69149,999,459,-.23755502E-1,-.2572641E-1,0
STARLINK-37332,2026-111C,2026-06-11T06:00:02.000160,15.61702088,.00013884,53.1592,181.6311,77.5012,93.9834,0,U,69150,999,459,-.33148455E-1,-.2532407E-1,0
STARLINK-37297,2026-111D,2026-06-11T06:19:11.654976,15.80864838,.00014543,53.1579,181.3344,118.9332,241.1837,0,U,69151,999,332,.60727881E-3,.120803E-2,0
STARLINK-37317,2026-111E,2026-06-11T06:16:20.407584,15.80939090,.00015256,53.1575,181.3208,133.2056,226.9094,0,U,69152,999,332,.89804908E-3,.180859E-2,0
STARLINK-37374,2026-111F,2026-06-11T06:00:02.000160,15.56887220,.00012297,53.1594,181.7460,70.4677,44.2835,0,U,69153,999,459,-.39554535E-1,-.2513539E-1,0
STARLINK-37235,2026-111G,2026-06-11T06:00:02.000160,15.53785018,.00005962,53.1596,181.9634,102.1737,265.5121,0,U,69154,999,459,-.45901705E-1,-.2641277E-1,0
STARLINK-37329,2026-111H,2026-06-11T06:16:59.372256,15.80966396,.00014608,53.1578,181.3242,121.0777,239.0389,0,U,69155,999,332,.13628864E-2,.278336E-2,0
STARLINK-37345,2026-111J,2026-06-11T06:14:54.526848,15.80951578,.00009637,53.1579,181.3144,72.7285,287.3843,0,U,69156,999,332,.98945429E-3,.199897E-2,0
STARLINK-37353,2026-111K,2026-06-11T06:14:35.644992,15.80943780,.0000895,53.1581,181.3129,124.0649,236.0459,0,U,69157,999,332,.7889076E-3,.15841E-2,0
STARLINK-37363,2026-111L,2026-06-11T06:11:36.355488,15.80968432,.00014641,53.1578,181.2982,115.0694,245.0481,0,U,69158,999,332,.10949858E-2,.222038E-2,0
STARLINK-37343,2026-111M,2026-06-11T06:00:02.000160,15.56898905,.00012038,53.1592,181.7471,66.9919,46.8839,0,U,69159,999,459,-.39523612E-1,-.2512775E-1,0
STARLINK-37328,2026-111N,2026-06-11T06:11:25.474272,15.80973003,.00012711,53.1569,181.2978,105.4412,254.6751,0,U,69160,999,332,.11675703E-2,.237276E-2,0
STARLINK-37311,2026-111P,2026-06-11T04:50:39.748416,15.78121842,.00011725,53.1581,181.6623,92.9355,267.1801,0,U,69161,999,331,.10891487E-2,.193356E-2,0
STARLINK-36286,2026-111Q,2026-06-11T04:49:24.972672,15.78118841,.00013027,53.1581,181.6567,86.7158,273.4012,0,U,69162,999,331,.1088886E-2,.193282E-2,0
STARLINK-37196,2026-111R,2026-06-11T04:53:21.014880,15.78114862,.00014154,53.1584,181.6743,102.8161,257.3019,0,U,69163,999,331,.94552806E-3,.167201E-2,0
STARLINK-36288,2026-111S,2026-06-11T04:52:11.030016,15.78118756,.00009725,53.1582,181.6681,98.2296,261.8836,0,U,69164,999,331,.99537832E-3,.176271E-2,0
STARLINK-37445,2026-111T,2026-06-11T06:18:51.373440,15.78109697,.00010798,53.1584,181.3308,109.6232,250.4906,0,U,69165,999,332,.87869954E-3,.155077E-2,0
STARLINK-37491,2026-111U,2026-06-11T03:19:50.735424,15.78108479,.00011712,53.1580,181.9794,82.9043,277.2112,0,U,69166,999,330,.10704997E-2,.189841E-2,0
